{
  "norad_id": 55962,
  "name": "STARLINK-5906",
  "history": [
    {
      "epoch": "2026-05-02T10:58:46.274592Z",
      "apogee_km": 574.3855114957032,
      "perigee_km": 569.699700405371,
      "latitude_deg": 1.7500867010210335e-05,
      "longitude_deg": 103.95545420936445,
      "height_km": 574.4151581260605,
      "semi_major_axis_km": 6950.179605950537,
      "eccentricity": 0.0003371,
      "inclination_deg": 69.9987,
      "raan_deg": 129.0235,
      "arg_perigee_deg": 271.3491,
      "mean_anomaly_deg": 88.7282,
      "mean_motion_rev_day": 14.98334296
    },
    {
      "epoch": "2026-05-03T09:24:39.431520Z",
      "apogee_km": 574.4028005718574,
      "perigee_km": 569.7060002272956,
      "latitude_deg": 1.276610601376354e-05,
      "longitude_deg": 124.20623670813802,
      "height_km": 574.4400499318249,
      "semi_major_axis_km": 6950.191400399576,
      "eccentricity": 0.00033789,
      "inclination_deg": 69.9986,
      "raan_deg": 126.667,
      "arg_perigee_deg": 271.0263,
      "mean_anomaly_deg": 89.0509,
      "mean_motion_rev_day": 14.98330482
    },
    {
      "epoch": "2026-05-04T09:26:41.648640Z",
      "apogee_km": 574.4199940652352,
      "perigee_km": 569.7550033816915,
      "latitude_deg": 5.374255778397084e-05,
      "longitude_deg": 120.18457108829804,
      "height_km": 574.505170485395,
      "semi_major_axis_km": 6950.224498723463,
      "eccentricity": 0.0003356,
      "inclination_deg": 69.9985,
      "raan_deg": 124.1416,
      "arg_perigee_deg": 270.2457,
      "mean_anomaly_deg": 89.8318,
      "mean_motion_rev_day": 14.98319779
    },
    {
      "epoch": "2026-05-05T09:28:42.256128Z",
      "apogee_km": 574.4715240260348,
      "perigee_km": 569.6689308318801,
      "latitude_deg": -8.219179959083966e-06,
      "longitude_deg": 116.17019290861235,
      "height_km": 574.4938259011376,
      "semi_major_axis_km": 6950.207227428957,
      "eccentricity": 0.0003455,
      "inclination_deg": 69.9983,
      "raan_deg": 121.6168,
      "arg_perigee_deg": 270.0994,
      "mean_anomaly_deg": 89.9769,
      "mean_motion_rev_day": 14.98325364
    },
    {
      "epoch": "2026-05-06T09:30:43.572096Z",
      "apogee_km": 574.4114515055126,
      "perigee_km": 569.7466055114983,
      "latitude_deg": -4.306741426237608e-05,
      "longitude_deg": 112.1529643077858,
      "height_km": 574.5238671505696,
      "semi_major_axis_km": 6950.216028508506,
      "eccentricity": 0.00033559,
      "inclination_deg": 69.9982,
      "raan_deg": 119.0921,
      "arg_perigee_deg": 269.5782,
      "mean_anomaly_deg": 90.4992,
      "mean_motion_rev_day": 14.98322518
    },
    {
      "epoch": "2026-05-07T09:32:44.652192Z",
      "apogee_km": 574.378519441193,
      "perigee_km": 569.7427376229616,
      "latitude_deg": 8.642424124264053e-05,
      "longitude_deg": 108.13638085845325,
      "height_km": 574.5681802654033,
      "semi_major_axis_km": 6950.197628532077,
      "eccentricity": 0.0003335,
      "inclination_deg": 69.9984,
      "raan_deg": 116.567,
      "arg_perigee_deg": 268.0249,
      "mean_anomaly_deg": 92.0529,
      "mean_motion_rev_day": 14.98328468
    },
    {
      "epoch": "2026-05-08T15:59:17.564928Z",
      "apogee_km": 574.3470770785025,
      "perigee_km": 569.7446659809766,
      "latitude_deg": -5.6120671346947406e-05,
      "longitude_deg": 7.050360841099612,
      "height_km": 574.4661747148773,
      "semi_major_axis_km": 6950.18287152974,
      "eccentricity": 0.0003311,
      "inclination_deg": 69.9984,
      "raan_deg": 113.3684,
      "arg_perigee_deg": 270.1829,
      "mean_anomaly_deg": 89.895,
      "mean_motion_rev_day": 14.9833324
    }
  ]
}